FLOCK 2K-34             
1 42878U 17042BF  18007.95772599  .00006436  00000-0  18994-3 0  9995
2 42878  96.9938 272.6920 0011725 330.8530  29.2059 15.35234866 27044
FLOCK 2K-33             
1 42879U 17042BG  18008.15008885  .00004167  00000-0  12369-3 0  9998
2 42879  96.9938 272.8817 0011855 329.6771  30.3786 15.35251581 27075
FLOCK 2K-28             
1 42880U 17042BH  18008.15418483  .00001379  00000-0  44086-4 0  9993
2 42880  96.9950 272.7419 0012071 328.4145  31.6373 15.33983151 27069
LEMUR-2-ARTFISCHER      
1 42881U 17042BJ  18007.78964970  .00002944  00000-0  89447-4 0  9998
2 42881  96.9966 272.5357 0012679 332.0082  28.0479 15.34732849 27009
FLOCK 2K-27             
1 42882U 17042BK  18007.95338978  .00001215  00000-0  37640-4 0  9999
2 42882  96.9946 272.7040 0012141 330.6790  29.3772 15.35202991 27048
FLOCK 2K-26             
1 42883U 17042BL  18008.21128097  .00004977  00000-0  14708-3 0  9996
2 42883  96.9935 272.9499 0011901 327.9629  32.0891 15.35300514 27087
FLOCK 2K-25             
1 42884U 17042BM  18007.95629054  .00006302  00000-0  18600-3 0  9995
2 42884  96.9937 272.6912 0011793 330.3619  29.6956 15.35240261 27045
FLOCK 2K-20             
1 42885U 17042BN  18007.62346391  .00003080  00000-0  91917-4 0  9993
2 42885  96.9944 272.3981 0012083 329.6958  30.3586 15.35276875 26998
FLOCK 2K-19             
1 42886U 17042BP  18007.62649784  .00003624  00000-0  10773-3 0  9990
2 42886  96.9940 272.3967 0012066 331.0861  28.9714 15.35287522 26997
FLOCK 2K-18             
1 42887U 17042BQ  18008.20137245  .00004536  00000-0  13430-3 0  9996
2 42887  96.9937 272.9634 0012040 327.3079  32.7419 15.35283911 27086
FLOCK 2K-17             
1 42888U 17042BR  18007.61990286  .00002234  00000-0  67330-4 0  9995
2 42888  96.9931 272.3901 0012048 327.9887  32.0625 15.35245777 26992
FLOCK 2K-16             
1 42889U 17042BS  18008.20770004  .00003668  00000-0  10914-3 0  9993
2 42889  96.9938 272.9579 0011621 326.0261  34.0238 15.35253092 27081
FLOCK 2K-15             
1 42890U 17042BT  18008.20000528  .00002979  00000-0  88993-4 0  9999
2 42890  96.9946 272.9771 0011891 327.0379  33.0122 15.35272840 27089
FLOCK 2K-13             
1 42891U 17042BU  18007.62412641  .00001133  00000-0  35447-4 0  9995
2 42891  96.9944 272.3942 0012257 324.5079  35.5349 15.35018773 26998
FLOCK 2K-14             
1 42892U 17042BV  18008.20305090  .00001550  00000-0  47344-4 0  9992
2 42892  96.9941 272.9528 0011950 325.1271  34.9190 15.35255768 27087
FLOCK 2K-12             
1 42893U 17042BW  18008.19688063  .00003015  00000-0  89991-4 0  9997
2 42893  96.9943 272.9752 0012043 327.9453  32.1058 15.35287067 27085
FLOCK 2K-11             
1 42894U 17042BX  18008.20455613  .00006812  00000-0  20076-3 0  9999
2 42894  96.9938 272.9635 0011840 322.4198  37.6217 15.35258977 27085
FLOCK 2K-10             
1 42895U 17042BY  18008.19833058  .00001943  00000-0  58831-4 0  9992
2 42895  96.9943 272.9616 0012063 325.4130  34.6328 15.35256100 27084
FLOCK 2K-09             
1 42896U 17042BZ  18008.19515648  .00002460  00000-0  73869-4 0  9998
2 42896  96.9948 272.9751 0011932 325.2725  34.7739 15.35275989 27254
FLOCK 2K-06             
1 42897U 17042CA  18007.90664277  .00001585  00000-0  48339-4 0  9991
2 42897  96.9940 272.6165 0010821 341.3746  18.7101 15.35296514 27039
SILU-1 (SILKROAD 1)     
1 42903U 17021F   18008.04720727  .00011508  00000-0  11688-3 0  9997
2 42903  42.7798 213.2787 0010519 256.9368 238.6321 15.65132434 24782
FLOCK 3M-1              
1 42995U 17068J   18007.96882465  .00000904  00000-0  47477-4 0  9991
2 42995  97.3443 125.1628 0017289 353.0728   7.0265 15.18095459 10324
FLOCK 3M-3              
1 42996U 17068K   18007.96164002  .00000674  00000-0  36040-4 0  9990
2 42996  97.3400 125.1311 0016679 353.8279   6.2747 15.18255539 10321
FLOCK 3M-4              
1 42997U 17068L   18008.22081560  .00001984  00000-0  99405-4 0  9997
2 42997  97.3611 125.5922 0016497 353.9746   6.1288 15.18411953 10363
FLOCK 3M-2              
1 42998U 17068M   18007.81280836  .00000661  00000-0  35084-4 0  9993
2 42998  97.3513 125.1302 0014650 351.8432   8.2562 15.18641401 10306
ECAMSAT                 
1 43019U 98067NG  18008.12719713  .00003765  00000-0  61408-4 0  9999
2 43019  51.6405  96.3316 0004869 300.6569  59.3942 15.55346061 93622
ASTERIA                 
1 43020U 98067NH  18007.79928121  .00008165  00000-0  12306-3 0  9999
2 43020  51.6403  97.8940 0002241 299.0337  61.0429 15.55744809  7499
DELLINGR (RBLE)         
1 43021U 98067NJ  18008.12754852  .00004938  00000-0  78204-4 0  9990
2 43021  51.6406  96.3354 0001963 299.6972  60.3823 15.55383527  7549
TECHEDSAT 6             
1 43026U 98067NK  18008.17565929  .00042487  00000-0  51382-3 0  9993
2 43026  51.6382  95.1555 0003274 335.1337  24.9498 15.60258252  7462
OSIRIS-3U               
1 43027U 98067NL  18008.22850086  .00014112  00000-0  19900-3 0  9995
2 43027  51.6398  95.5100 0003339 280.4331  79.6284 15.56881726  7449
2017-071E               
1 43041U 17071E   18007.71478840  .00004730  00000-0  13352-3 0  9994
2 43041  51.6399 102.5313 0000249 352.3734   7.7246 15.38301814  7191
AEROCUBE 7B             
1 43042U 17071F   18007.78939926  .00002566  00000-0  78510-4 0  9992
2 43042  51.6398 102.2766 0005758  48.8544 311.2936 15.37771069  4914
AEROCUBE 7C             
1 43043U 17071G   18007.85424726  .00002604  00000-0  79491-4 0  9990
2 43043  51.6400 101.9599 0005726  48.9945 311.1533 15.37780168  4899
2017-071H               
1 43044U 17071H   18007.85263866  .00004994  00000-0  14218-3 0  9996
2 43044  51.6398 101.9497 0005534  46.8577 313.2869 15.37910267  4898
2017-071J               
1 43045U 17071J   18007.84550695  .00004635  00000-0  13117-3 0  9994
2 43045  51.6397 101.9037 0004748  37.2411 322.8901 15.38279675  4935
2017-071K               
1 43046U 17071K   18007.71453947  .00004264  00000-0  12139-3 0  9994
2 43046  51.6408 102.5322 0004546  35.0497 325.0785 15.38311963  4920
2017-071L               
1 43047U 17071L   18007.78773126  .00005113  00000-0  14525-3 0  9991
2 43047  51.6400 102.2670 0003785  75.7236 284.4168 15.37927880  4925
2017-071M               
1 43048U 17071M   18007.78793566  .00004664  00000-0  13354-3 0  9991
2 43048  51.6402 102.2691 0003740  76.2157 283.9243 15.37898543  4921
2017-071N               
1 43049U 17071N   18007.85057274  .00002302  00000-0  71084-4 0  9991
2 43049  51.6400 101.9362 0003195  68.7963 291.3362 15.37944919  4885
2017-071P               
1 43050U 17071P   18007.78483057  .00003660  00000-0  10668-3 0  9995
2 43050  51.6400 102.2483 0003112  64.5826 295.5479 15.38003934  4874
2017-071Q               
1 43051U 17071Q   18007.72191023  .00005201  00000-0  14739-3 0  9995
2 43051  51.6399 102.5774 0001243 167.5888 192.5127 15.37960465  4868
2017-071R               
1 43052U 17071R   18008.23930415  .00002469  00000-0  75335-4 0  9992
2 43052  51.6403 100.0329 0003079  67.8604 292.2706 15.38011171  4943
2017-071S               
1 43053U 17071S   18007.85226257  .00003576  00000-0  10473-3 0  9993
2 43053  51.6400 101.9474 0001346 170.0120 190.0891 15.37915748  4893
2017-071T               
1 43054U 17071T   18007.52039164  .00003515  00000-0  10201-3 0  9999
2 43054  51.6399 103.4829 0000119  16.7800 343.3188 15.38253787  4846
